0 ARIANE 42P R/B
1 22079U 92052D   13280.80619909 -.00000039  00000-0  94379-4 0  7621
2 22079 066.0651 151.8020 0075472 246.1872 180.3583 12.77807820987383
0 ARIANE 42P R/B
1 22079U 92052D   13282.84310656 -.00000002  00000-0  26146-3 0  7631
2 22079 066.0648 147.5989 0075422 245.3423 190.2754 12.77807690987647
0 ARIANE 42P R/B
1 22079U 92052D   13287.16089124  .00000032  00000-0  41224-3 0  7652
2 22079 066.0640 138.6888 0075296 243.5511 252.3883 12.77808419988199
0 ARIANE 42P R/B
1 22079U 92052D   13289.19675310 -.00000003  00000-0  25905-3 0  7663
2 22079 066.0639 134.4876 0075229 242.7086 257.4963 12.77809196988459
0 ARIANE 42P R/B
1 22079U 92052D   13292.17090683  .00000011  00000-0  31829-3 0  7670
2 22079 066.0642 128.3501 0075136 241.4779 258.8243 12.77809892988833
0 ARIANE 42P R/B
1 22079U 92052D   13294.50797859  .00000030  00000-0  40616-3 0  7684
2 22079 066.0643 123.5272 0075072 240.5150 209.5288 12.77810051989133
